1 58111U 23161Q   25312.42619799  .00016382  00000+0  56362-3 0  9993
2 58111  53.1614   8.9315 0001367 107.3958 252.7192 15.30223137115859